ONEWEB-0228             
1 48780U 21045P   24034.60920124  .00000067  00000+0  14445-3 0  9999
2 48780  87.8949  71.2745 0002031  96.4722 263.6640 13.15547189130652
